{
  "links" : {
    "next" : "https://api.nasa.gov/neo/rest/v1/feed?start_date=2006-08-09&end_date=2006-08-09&detailed=true&api_key=t0TVs3DtDT2H8Oy2Zy8m2eVrNsAVKAexjcZXUckd",
    "prev" : "https://api.nasa.gov/neo/rest/v1/feed?start_date=2006-08-07&end_date=2006-08-07&detailed=true&api_key=t0TVs3DtDT2H8Oy2Zy8m2eVrNsAVKAexjcZXUckd",
    "self" : "https://api.nasa.gov/neo/rest/v1/feed?start_date=2006-08-08&end_date=2006-08-08&detailed=true&api_key=t0TVs3DtDT2H8Oy2Zy8m2eVrNsAVKAexjcZXUckd"
  },
  "element_count" : 10,
  "near_earth_objects" : {
    "2006-08-08" : [ {
      "links" : {
        "self" : "https://api.nasa.gov/neo/rest/v1/neo/3767167?api_key=t0TVs3DtDT2H8Oy2Zy8m2eVrNsAVKAexjcZXUckd"
      },
      "neo_reference_id" : "3767167",
      "name" : "(2017 BW30)",
      "nasa_jpl_url" : "http://ssd.jpl.nasa.gov/sbdb.cgi?sstr=3767167",
      "absolute_magnitude_h" : 23.9,
      "estimated_diameter" : {
        "kilometers" : {
          "estimated_diameter_min" : 0.04411182,
          "estimated_diameter_max" : 0.0986370281
        },
        "meters" : {
          "estimated_diameter_min" : 44.1118199997,
          "estimated_diameter_max" : 98.6370281305
        },
        "miles" : {
          "estimated_diameter_min" : 0.0274098057,
          "estimated_diameter_max" : 0.0612901888
        },
        "feet" : {
          "estimated_diameter_min" : 144.7238235278,
          "estimated_diameter_max" : 323.6123073718
        }
      },
      "is_potentially_hazardous_asteroid" : false,
      "close_approach_data" : [ {
        "close_approach_date" : "2006-08-08",
        "epoch_date_close_approach" : 1155020400000,
        "relative_velocity" : {
          "kilometers_per_second" : "12.5706704186",
          "kilometers_per_hour" : "45254.4135069359",
          "miles_per_hour" : "28119.3326593514"
        },
        "miss_distance" : {
          "astronomical" : "0.098699043",
          "lunar" : "38.3939285278",
          "kilometers" : "14765166",
          "miles" : "9174649"
        },
        "orbiting_body" : "Earth"
      } ],
      "orbital_data" : {
        "orbit_id" : "12",
        "orbit_determination_date" : "2017-08-26 06:16:49",
        "orbit_uncertainty" : "6",
        "minimum_orbit_intersection" : ".00203226",
        "jupiter_tisserand_invariant" : "5.646",
        "epoch_osculation" : "2458000.5",
        "eccentricity" : ".2116654927436459",
        "semi_major_axis" : "1.076766915934849",
        "inclination" : "23.80081799704096",
        "ascending_node_longitude" : "311.9522406723861",
        "orbital_period" : "408.1135194096984",
        "perihelion_distance" : ".8488525161034431",
        "perihelion_argument" : "85.6343917213093",
        "aphelion_distance" : "1.304681315766254",
        "perihelion_time" : "2458110.718214462166",
        "mean_anomaly" : "262.7756853931933",
        "mean_motion" : ".8821075090105063",
        "equinox" : "J2000"
      }
    } ]
  }
}